OBJECT_NAME,OBJECT_ID,EPOCH,MEAN_MOTION,ECCENTRICITY,INCLINATION,RA_OF_ASC_NODE,ARG_OF_PERICENTER,MEAN_ANOMALY,EPHEMERIS_TYPE,CLASSIFICATION_TYPE,NORAD_CAT_ID,ELEMENT_SET_NO,REV_AT_EPOCH,BSTAR,MEAN_MOTION_DOT,MEAN_MOTION_DDOT
IRIDIUM 138,2017-083B,2023-03-26T22:13:44.893056,14.34219373,.0002105,86.3899,94.2481,87.2308,272.9129,0,U,43071,999,27525,.88518E-4,.268E-5,0
IRIDIUM 116,2017-083C,2023-03-27T02:29:28.786560,14.34219919,.0002425,86.3910,94.4006,87.6959,272.4514,0,U,43072,999,27531,.88774E-4,.268E-5,0
IRIDIUM 130,2017-083D,2023-03-27T01:43:46.704576,14.34220153,.0002193,86.3918,94.5747,85.6257,274.5189,0,U,43073,999,27525,.91438E-4,.276E-5,0
IRIDIUM 151,2017-083E,2023-03-26T18:25:24.420864,14.34218526,.0002422,86.3911,94.5723,85.5236,274.6236,0,U,43074,999,27523,.90203E-4,.272E-5,0
IRIDIUM 134,2017-083F,2023-03-26T22:41:07.570464,14.34221895,.0002182,86.3913,94.4896,95.0777,265.0667,0,U,43075,999,27522,.90281E-4,.273E-5,0
IRIDIUM 137,2017-083G,2023-03-26T22:59:22.896960,14.34219352,.0002459,86.3913,94.5545,87.9755,272.1722,0,U,43076,999,27529,.89151E-4,.269E-5,0
IRIDIUM 141,2017-083H,2023-03-26T22:50:15.015552,14.34217426,.0002197,86.3908,94.4536,86.2032,273.9415,0,U,43077,999,27529,.91398E-4,.276E-5,0
IRIDIUM 153,2017-083J,2023-03-27T04:23:14.608608,14.34219499,.0002034,86.3948,62.7700,83.5824,276.5603,0,U,43078,999,27643,.18147E-3,.528E-5,0
IRIDIUM 131,2017-083K,2023-03-26T22:31:58.966752,14.34217477,.0002146,86.3915,94.5664,87.8257,272.3185,0,U,43079,999,27522,.1125E-3,.335E-5,0
IRIDIUM 144,2018-030A,2023-03-26T21:50:30.762528,14.34219187,.0002227,86.3945,62.8447,92.9373,267.2078,0,U,43249,999,26125,.26757E-3,.769E-5,0
IRIDIUM 149,2018-030B,2023-03-26T21:59:38.954112,14.34213942,.0002265,86.3945,62.8224,97.2783,262.8670,0,U,43250,999,26127,.71946E-4,.221E-5,0
IRIDIUM 157,2018-030C,2023-03-26T22:27:02.535264,14.34222814,.0002326,86.3946,62.8411,81.6360,278.5099,0,U,43251,999,26125,.23221E-3,.67E-5,0
IRIDIUM 140,2018-030D,2023-03-27T00:34:55.017696,14.34221664,.0002157,86.3947,62.8188,95.9309,264.2133,0,U,43252,999,26132,.24972E-3,.719E-5,0
IRIDIUM 145,2018-030E,2023-03-26T22:36:10.754496,14.34213392,.0002536,86.3948,62.8286,95.6118,264.5367,0,U,43253,999,26124,.77413E-4,.237E-5,0
IRIDIUM 146,2018-030F,2023-03-27T04:50:38.799744,14.34220135,.0002457,86.3946,62.7354,91.6251,268.5226,0,U,43254,999,26129,.21881E-3,.633E-5,0
IRIDIUM 148,2018-030G,2023-03-26T23:03:35.193600,14.34221067,.0002473,86.3947,62.8623,85.6950,274.4528,0,U,43255,999,26129,.24641E-3,.71E-5,0
IRIDIUM 142,2018-030H,2023-03-26T22:17:55.040928,14.34221349,.0002307,86.3944,62.8072,87.9311,272.2149,0,U,43256,999,26125,.23934E-3,.69E-5,0
IRIDIUM 150,2018-030J,2023-03-26T21:32:14.688672,14.34216568,.0002156,86.3945,62.8987,93.2135,266.9307,0,U,43257,999,26127,.10112E-3,.303E-5,0
IRIDIUM 143,2018-030K,2023-03-26T22:45:19.099008,14.34215506,.000234,86.3949,62.9229,92.2999,267.8465,0,U,43258,999,26121,.49336E-4,.158E-5,0
IRIDIUM 161,2018-047C,2023-03-27T02:23:07.644192,14.43284371,.0002008,86.4526,220.7532,100.6162,259.5265,0,U,43478,999,25521,.28463E-3,.978E-5,0
IRIDIUM 152,2018-047D,2023-03-27T03:07:25.268448,14.34223965,.0002371,86.4000,220.6030,95.0266,265.1201,0,U,43479,999,25364,.23727E-3,.684E-5,0
IRIDIUM 147,2018-047E,2023-03-26T22:15:09.831168,14.34214012,.000208,86.4002,220.6725,88.9040,271.2394,0,U,43480,999,25360,.18693E-3,.543E-5,0
IRIDIUM 110,2018-047F,2023-03-26T22:24:17.893152,14.34219028,.0001819,86.4005,220.7300,97.4691,262.6712,0,U,43481,999,25359,.25651E-3,.738E-5,0
IRIDIUM 162,2018-047G,2023-03-26T21:14:33.337248,14.43281742,.0002106,86.4526,220.7488,95.4617,264.6824,0,U,43482,999,25517,.2854E-3,.98E-5,0
IRIDIUM 160,2018-061A,2023-03-26T19:25:49.960992,14.34222637,.0002373,86.4047,189.2115,92.5892,267.5576,0,U,43569,999,24447,.23335E-3,.673E-5,0
IRIDIUM 166,2018-061B,2023-03-26T20:02:21.781248,14.34223185,.0002051,86.4045,189.1675,104.0005,256.1419,0,U,43570,999,24450,.23603E-3,.681E-5,0
IRIDIUM 158,2018-061C,2023-03-26T19:16:42.408768,14.34215980,.0002435,86.4046,189.1897,99.4839,260.6632,0,U,43571,999,24446,.56812E-5,.36E-6,0
IRIDIUM 165,2018-061D,2023-03-26T21:33:42.011424,14.34221051,.0002478,86.4047,189.1738,100.5903,259.5572,0,U,43572,999,24450,.9943E-4,.298E-5,0
IRIDIUM 155,2018-061E,2023-03-27T05:01:14.609568,14.34221322,.000187,86.4043,188.9712,99.0170,261.1237,0,U,43573,999,24452,.2358E-3,.68E-5,0
IRIDIUM 154,2018-061F,2023-03-26T16:50:34.225728,14.34221974,.0002324,86.4048,189.2592,90.1056,270.0406,0,U,43574,999,24449,.20008E-3,.58E-5,0
IRIDIUM 163,2018-061G,2023-03-26T19:44:06.543744,14.34217356,.0002482,86.4046,189.1605,100.5280,259.6196,0,U,43575,999,24448,.24271E-3,.7E-5,0
