IRIDIUM 138             
1 43071U 17083B   23085.92621404  .00000268  00000+0  88518-4 0  9999
2 43071  86.3899  94.2481 0002105  87.2308 272.9129 14.34219373275254
IRIDIUM 116             
1 43072U 17083C   23086.10380540  .00000268  00000+0  88774-4 0  9998
2 43072  86.3910  94.4006 0002425  87.6959 272.4514 14.34219919275311
IRIDIUM 130             
1 43073U 17083D   23086.07206834  .00000276  00000+0  91438-4 0  9998
2 43073  86.3918  94.5747 0002193  85.6257 274.5189 14.34220153275250
IRIDIUM 151             
1 43074U 17083E   23085.76764376  .00000272  00000+0  90203-4 0  9999
2 43074  86.3911  94.5723 0002422  85.5236 274.6236 14.34218526275232
IRIDIUM 134             
1 43075U 17083F   23085.94522651  .00000273  00000+0  90281-4 0  9995
2 43075  86.3913  94.4896 0002182  95.0777 265.0667 14.34221895275228
IRIDIUM 137             
1 43076U 17083G   23085.95790390  .00000269  00000+0  89151-4 0  9993
2 43076  86.3913  94.5545 0002459  87.9755 272.1722 14.34219352275297
IRIDIUM 141             
1 43077U 17083H   23085.95156268  .00000276  00000+0  91398-4 0  9998
2 43077  86.3908  94.4536 0002197  86.2032 273.9415 14.34217426275298
IRIDIUM 153             
1 43078U 17083J   23086.18280797  .00000528  00000+0  18147-3 0  9990
2 43078  86.3948  62.7700 0002034  83.5824 276.5603 14.34219499276430
IRIDIUM 131             
1 43079U 17083K   23085.93887693  .00000335  00000+0  11250-3 0  9995
2 43079  86.3915  94.5664 0002146  87.8257 272.3185 14.34217477275227
IRIDIUM 144             
1 43249U 18030A   23085.91007827  .00000769  00000+0  26757-3 0  9997
2 43249  86.3945  62.8447 0002227  92.9373 267.2078 14.34219187261254
IRIDIUM 149             
1 43250U 18030B   23085.91642308  .00000221  00000+0  71946-4 0  9992
2 43250  86.3945  62.8224 0002265  97.2783 262.8670 14.34213942261278
IRIDIUM 157             
1 43251U 18030C   23085.93544601  .00000670  00000+0  23221-3 0  9992
2 43251  86.3946  62.8411 0002326  81.6360 278.5099 14.34222814261259
IRIDIUM 140             
1 43252U 18030D   23086.02424789  .00000719  00000+0  24972-3 0  9996
2 43252  86.3947  62.8188 0002157  95.9309 264.2133 14.34221664261326
IRIDIUM 145             
1 43253U 18030E   23085.94179114  .00000237  00000+0  77413-4 0  9990
2 43253  86.3948  62.8286 0002536  95.6118 264.5367 14.34213392261245
IRIDIUM 146             
1 43254U 18030F   23086.20183796  .00000633  00000+0  21881-3 0  9999
2 43254  86.3946  62.7354 0002457  91.6251 268.5226 14.34220135261291
IRIDIUM 148             
1 43255U 18030G   23085.96082400  .00000710  00000+0  24641-3 0  9995
2 43255  86.3947  62.8623 0002473  85.6950 274.4528 14.34221067261296
IRIDIUM 142             
1 43256U 18030H   23085.92910927  .00000690  00000+0  23934-3 0  9997
2 43256  86.3944  62.8072 0002307  87.9311 272.2149 14.34221349261258
IRIDIUM 150             
1 43257U 18030J   23085.89739223  .00000303  00000+0  10112-3 0  9997
2 43257  86.3945  62.8987 0002156  93.2135 266.9307 14.34216568261276
IRIDIUM 143             
1 43258U 18030K   23085.94813772  .00000158  00000+0  49336-4 0  9995
2 43258  86.3949  62.9229 0002340  92.2999 267.8465 14.34215506261213
IRIDIUM 161             
1 43478U 18047C   23086.09939403  .00000978  00000+0  28463-3 0  9991
2 43478  86.4526 220.7532 0002008 100.6162 259.5265 14.43284371255212
IRIDIUM 152             
1 43479U 18047D   23086.13015357  .00000684  00000+0  23727-3 0  9992
2 43479  86.4000 220.6030 0002371  95.0266 265.1201 14.34223965253647
IRIDIUM 147             
1 43480U 18047E   23085.92719712  .00000543  00000+0  18693-3 0  9996
2 43480  86.4002 220.6725 0002080  88.9040 271.2394 14.34214012253600
IRIDIUM 110             
1 43481U 18047F   23085.93354043  .00000738  00000+0  25651-3 0  9998
2 43481  86.4005 220.7300 0001819  97.4691 262.6712 14.34219028253598
IRIDIUM 162             
1 43482U 18047G   23085.88510807  .00000980  00000+0  28540-3 0  9994
2 43482  86.4526 220.7488 0002106  95.4617 264.6824 14.43281742255174
IRIDIUM 160             
1 43569U 18061A   23085.80960603  .00000673  00000+0  23335-3 0  9997
2 43569  86.4047 189.2115 0002373  92.5892 267.5576 14.34222637244478
IRIDIUM 166             
1 43570U 18061B   23085.83497432  .00000681  00000+0  23603-3 0  9994
2 43570  86.4045 189.1675 0002051 104.0005 256.1419 14.34223185244509
IRIDIUM 158             
1 43571U 18061C   23085.80326862  .00000036  00000+0  56812-5 0  9994
2 43571  86.4046 189.1897 0002435  99.4839 260.6632 14.34215980244461
IRIDIUM 165             
1 43572U 18061D   23085.89840291  .00000298  00000+0  99430-4 0  9993
2 43572  86.4047 189.1738 0002478 100.5903 259.5572 14.34221051244501
IRIDIUM 155             
1 43573U 18061E   23086.20919687  .00000680  00000+0  23580-3 0  9993
2 43573  86.4043 188.9712 0001870  99.0170 261.1237 14.34221322244520
IRIDIUM 154             
1 43574U 18061F   23085.70178502  .00000580  00000+0  20008-3 0  9992
2 43574  86.4048 189.2592 0002324  90.1056 270.0406 14.34221974244492
IRIDIUM 163             
1 43575U 18061G   23085.82229796  .00000700  00000+0  24271-3 0  9998
2 43575  86.4046 189.1605 0002482 100.5280 259.6196 14.34217356244482
